[{"OBJECT_NAME":"STARLINK-3121","OBJECT_ID":"2021-104W","EPOCH":"2026-03-09T17:15:45.453312","MEAN_MOTION":15.08838607,"ECCENTRICITY":0.00011819,"INCLINATION":53.2165,"RA_OF_ASC_NODE":228.8989,"ARG_OF_PERICENTER":91.1765,"MEAN_ANOMALY":268.9363,"EPHEMERIS_TYPE":0,"CLASSIFICATION_TYPE":"U","NORAD_CAT_ID":49428,"ELEMENT_SET_NO":999,"REV_AT_EPOCH":23864,"BSTAR":-8.174525e-6,"MEAN_MOTION_DOT":-4.18e-6,"MEAN_MOTION_DDOT":0},{"OBJECT_NAME":"NEONSAT-1A","OBJECT_ID":"2026-019A","EPOCH":"2026-03-09T21:53:31.879392","MEAN_MOTION":15.0780294,"ECCENTRICITY":0.00137261,"INCLINATION":97.411,"RA_OF_ASC_NODE":192.4819,"ARG_OF_PERICENTER":167.4713,"MEAN_ANOMALY":192.686,"EPHEMERIS_TYPE":0,"CLASSIFICATION_TYPE":"U","NORAD_CAT_ID":67614,"ELEMENT_SET_NO":999,"REV_AT_EPOCH":585,"BSTAR":0.00027109929,"MEAN_MOTION_DOT":4.096e-5,"MEAN_MOTION_DDOT":0}]
